#dP2021 10  3  0  0  0.00000000      96 __u+U ITR00 FIT  IAC
## 2178      0.00000000   900.00000000 59490 0.0000000000000
+  126   C01C02C03C04C05C06C07C08C09C10C11C12C13C14C16C19C20
+        C21C22C23C24C25C26C27C28C29C30C32C33C34C35C36C37C38
+        C39C40C41C42C43C44C45C46C60E01E02E03E04E05E07E08E09
+        E11E12E13E14E15E18E19E21E24E25E26E27E30E31E33E36G01
+        G02G03G04G05G06G07G08G09G10G12G13G14G15G16G17G18G19
+        G20G21G22G23G24G25G26G27G28G29G30G31G32J01J02J03J07
+        R01R02R03R04R05R06R07R08R09R10R11R12R13R14R15R16R17
+        R18R19R20R21R22R23R24  0  0  0  0  0  0  0  0  0  0
++         0  0  0  0  0  0  0  0  0  0  0  0  0  0  0  0  0
++         0  0  0  0  0  0  0  0  0  0  0  0  0  0  0  0  0
++         0  0  0  0  0  0  0  0  0  0  0  0  0  0  0  0  0
++         0  0  0  0  0  0  0  0  0  0  0  0  0  0  0  0  0
++         0  0  0  0  0  0  0  0  0  0  0  0  0  0  0  0  0
++         0  0  0  0  0  0  0  0  0  0  0  0  0  0  0  0  0
++         0  0  0  0  0  0  0  0  0  0  0  0  0  0  0  0  0
++         0  0  0  0  0  0  0  0  0  0  0  0  0  0  0  0  0
%c M  cc GPS ccc cccc cccc cccc cccc ccccc ccccc ccccc ccccc
%c cc cc ccc ccc cccc cccc cccc cccc ccccc ccccc ccccc ccccc
%f  0.0000000  0.000000000  0.00000000000  0.000000000000000
%f  0.0000000  0.000000000  0.00000000000  0.000000000000000
%i    0    0    0    0      0      0      0      0         0
%i    0    0    0    0      0      0      0      0         0
/* INFORMATION & ANALYSIS CENTER (IAC)            RAPID DATA
/* S/V CLOCKS ARE ALIGNED TO GNSS TIME                      
/* G:C1WC2W R:C1PC2P E:C1XC5X C:C2IC6I J:C1CC2S             
/* PCV:IGS14_2163 OL/AL:FES2004  NONE     YN ORB:CoN CLK:CoN
*  2021 10 03  9 15  0.00000000
PC01 -34372.728228  24420.928201   -205.734231   -581.953503
PC02   4403.173532  41957.674862    499.031233    282.544652
PC03 -14783.596156  39522.013280   -287.162308    -79.061373
PC04 -39613.786418  14463.528520   -523.574800    133.947430
PC05  21913.616499  36027.477515    860.987863    254.844323
PC06  -4319.847207  25077.487827  33632.047981    279.894791
PC07 -18963.304500  33353.632315 -17628.235116   -171.654563
PC08  -4527.203215  39833.320261 -12818.609504   -900.955680
PC09   5300.362948  28594.309596  30993.321156   -154.373647
PC10 -11874.944563  33420.753604 -22887.250741      4.213362
PC11 -18110.042237   4861.771201 -20620.132931    609.708072
PC12 -25291.006756  -9380.677964  -7175.919243    746.107904
PC13    438.828187  41610.455273  -5618.158985    429.647054
PC14 -23908.330452  14446.297141    365.091298    608.138996
PC16  -7583.465801  23166.417615  34547.014583   -780.839506
PC19  18392.522389 -18627.147505  -9632.574998    953.831915
PC20  25323.823938  -9145.873135   7288.081402   -796.214828
PC21 -17477.345154  -6377.324691 -20798.380382   -931.687441
PC22    526.594480 -17648.173832 -21612.377241   -955.159536
PC23   2465.879621  27587.191695  -3375.698145   -966.352337
PC24 -16130.179158   3469.850933  22503.604941   -969.451192
PC25  -8762.607483  23006.540199  13117.923812   -845.684906
PC26 -13727.656420 -15626.009924  18616.589959    841.460519
PC27  23348.567080  15187.792146  -1809.079297    607.149385
PC28   9445.284369  19569.988728 -17498.298939    -19.288307
PC29   9510.749435 -12853.423151  22864.734649    455.415148
PC30  23845.263955   1494.014177  14427.095939    482.407928
PC32  17460.519362   6329.992927  20831.325231   -957.313866
PC33 -18361.453287  18728.729987   9549.531288   -967.818813
PC34 -23473.880694   -810.606385 -15065.390179   -568.307621
PC35  -9665.422257 -19244.222175  17728.276194    -63.802860
PC36   9494.974245 -22541.800349 -13406.646803   -770.838730
PC37  12973.855662  16832.997105 -18050.403912   -870.370629
PC38  -9714.908525  36069.710163 -19369.570255    179.663546
PC39 -13517.558380  20269.932478  34392.240687     33.477011
PC40 -25878.378719  28754.320742 -16949.573164    205.043555
PC41   -842.039167  17837.280514  21483.844172   -928.027031
PC42 -25315.160662   8569.755649  -8020.213913   -969.158091
PC43 -10198.950832  12561.939519 -22741.053174   -942.412826
PC44 -23764.862761 -14467.039898   1970.762285    417.067650
PC45  -2629.854410 -27562.308101   3596.222111    563.895303
PC46  15872.705818  -4949.819964 -22404.470950     57.097443
PC60   7273.082491  41499.355051  -1584.011445     -0.684774
PE01  18908.942323  -3055.248845 -22557.931661   -487.546834
PE02 -18948.978179   3188.124497  22518.834432    250.942930
PE03 -29518.594310   -443.711528  -2265.357192   -481.120363
PE04  22560.050943 -11645.063475 -15218.936971   -869.746747
PE05 -19244.840027 -12479.835792 -18715.680490   -244.653295
PE07  -2118.008704  17101.553169  24067.294230   -592.036453
PE08 -22232.650626  11833.146221  15557.803356   5927.760039
PE09   1787.780904 -16970.472598 -24188.844124   5510.998792
PE11  -4914.291445 -25281.395724  14578.781928   5329.178695
PE12  11384.654128 -11928.227408  24579.271326   4979.381006
PE13   4601.825469  25077.210431 -15030.316097    422.180598
PE14 -26916.501047  -8390.483777   3981.012001  -1591.900379
PE15 -11301.975431  11895.284433 -24631.104117    788.895907
PE18  18161.742490  16328.347497 -14954.705754  -1747.958414
PE19  29174.391423   2069.584090   4560.772433    392.830191
PE21   9106.848309  16179.513171 -23044.552012   -691.457360
PE24   7304.275899 -27141.842097   9313.141292  -1150.789136
PE25  -8954.247991 -16382.042528  22985.061809   -548.746382
PE26  18091.973726  23012.688733   4339.420486   1273.273222
PE27  -6416.526858  27012.726202 -10239.505327   -133.933363
PE30 -18552.769901  20993.893387   9532.575343   2570.649076
PE31  18028.947476 -21897.299311  -8451.576652   -486.322314
PE33  20497.023726   8243.178149  19700.101954   -464.203404
PE36 -17736.195204 -23459.954199  -3372.618456   -270.821838
PG01  16108.884323   3194.771402  20679.198751    550.052062
PG02 -14341.225441 -21811.244387  -4005.078227   -635.557821
PG03  19433.748475  -6841.335115  16600.422132   -311.176659
PG04  25944.012817      2.692163  -5854.707345   -204.020878
PG05 -13900.135142  -6836.070510 -21750.142533    -56.422292
PG06  -4983.588822 -24942.680515   7604.911981     86.681140
PG07  10038.368420 -13341.579576 -20173.660896    256.095956
PG08  25311.757248   6550.856812  -5562.755412    -38.728921
PG09  19728.295263  -8923.393712 -15470.686093   -361.594339
PG10 -10033.347011  22967.414694   8460.022746   -215.986067
PG12 -19552.070101   4651.895951  17045.106682   -106.139211
PG13 -20315.590618 -13257.341507 -11138.042642    194.179401
PG14  10972.875566 -22641.895860   8420.862338    -11.340628
PG15 -25911.113610  -4205.925268  -5492.907977   -116.694567
PG16   9905.230430  11473.261946 -22035.856123   -400.817504
PG17   6979.978212 -13717.112562  22083.586890    513.693144
PG18  -8713.002429  15162.146430 -19972.492705    315.067455
PG19  -3264.365641 -15359.182504  21180.531519     60.942695
PG20  -6349.198378 -17502.222925 -19062.241225    518.827760
PG21  18651.085792  10622.518723  16679.719925    145.792195
PG22  17093.228687    812.260795  20439.468400   -498.385077
PG23 -16979.039014  20150.803363  -3011.979321     49.788222
PG24 -18351.833320  -7107.160452  17751.703532    246.993809
PG25 -19592.155387  14576.960362   9845.527318    218.315017
PG26    254.348588  20822.664494 -16380.291035    140.864584
PG27  18999.318864  12231.766853 -14434.020331   -201.237213
PG28   5904.085405 -21607.488550  14972.792369    489.642755
PG29 -22375.616687   4741.546832 -13599.230162   -420.756487
PG30   2049.096950 -22424.494080 -13827.117723   -478.831461
PG31   5950.340571  25079.996554   5166.020961   -142.985953
PG32  -2238.157068  15171.746758  21797.934201     -6.312035
PJ01 -31132.762376  26134.805934  16109.040980    184.017413
PJ02 -31499.054354  26226.979656  14752.247452     -3.065851
PJ03 -25739.089380  16590.319743 -24406.365668     -3.068937
PJ07 -25421.699628  33634.703499     54.520230     -0.045977
PR01  23329.791940  -4129.574227   9432.729789     86.163804
PR02  19588.775836 -12313.778340 -10776.386288    495.365773
PR03   3743.221788 -12430.627415 -21932.046093     44.037604
PR04 -13883.638389  -5338.514275 -20698.529904    107.623732
PR05 -23807.334919   4497.926856  -7932.338590     80.031270
PR06 -18448.294327  13179.425283  11646.666651     -7.431938
PR07  -2905.956961  12254.256291  22204.357477    -40.863264
PR08  14003.445386   5403.542867  20679.946623    -61.296136
PR09  -9497.417576  20188.940900  12453.882487     16.338883
PR10  -2410.263727  25114.491433  -3500.674236    -75.581122
PR11   6421.526531  15981.284753 -18805.758587     49.734210
PR12  11474.474965  -3240.813492 -22519.302675    266.988313
PR13   9617.278759 -19544.680738 -13280.659276    -61.567392
PR14   1937.372141 -24976.745576   4777.437698     69.488586
PR15  -6604.834371 -15493.109283  19182.693246    101.087226
PR16 -11621.094269   4671.726352  22186.087074    -22.509982
PR17  -7473.247311 -16873.296670  17643.237724    463.494061
PR18 -18361.296981 -17462.869989   2753.757282     92.497980
PR19 -19591.199869 -10071.959681 -12874.829422   -161.684123
PR20  -8700.922093   5984.509552 -23210.398923    -56.901824
PR21   8487.893682  17224.105018 -16770.834104   -243.904541
PR22  18692.934611  17336.962523  -1742.967485   -136.704348
PR23  17610.697681   4811.952317  17802.284994    -15.276755
PR24   8326.189048  -7052.552938  23071.558825     61.148283
EOF
